NORAD_CAT_ID,OBJECT_NAME,OBJECT_TYPE,EPOCH,MEAN_MOTION,ECCENTRICITY,INCLINATION,RA_OF_ASC_NODE,ARG_OF_PERICENTER,MEAN_ANOMALY,BSTAR,MEAN_MOTION_DOT,MEAN_MOTION_DDOT,TLE_LINE0,TLE_LINE1,TLE_LINE2,SEMIMAJOR_AXIS,PERIOD,APOGEE,PERIGEE,DECAYED
52096.0,STARLINK-3717,PAYLOAD,2023-12-16 13:18:10,15.08844974,0.0001416,53.2172,133.9151,100.3458,259.7693,-3.2294e-05,-8.02e-06,0.0,0 STARLINK-3717,1 52096U 22029J   23350.55428519 -.00000802  00000-0 -32294-4 0  9995,2 52096  53.2172 133.9151 0001416 100.3458 259.7693 15.08844974 97872,6917.865,95.437,540.71,538.751,0.0
52096.0,STARLINK-3717,PAYLOAD,2023-12-16 16:28:56,15.08845303,0.0001373,53.2171,133.3203,95.069,265.0459,-3.2002e-05,-7.97e-06,0.0,0 STARLINK-3717,1 52096U 22029J   23350.68676452 -.00000797  00000-0 -32002-4 0  9990,2 52096  53.2171 133.3203 0001373  95.0690 265.0459 15.08845303 97892,6917.864,95.437,540.679,538.779,0.0
52096.0,STARLINK-3717,PAYLOAD,2023-12-17 14:44:20,15.08838408,0.0001397,53.2174,129.1574,92.5081,267.6072,9.0968e-06,-1.43e-06,0.0,0 STARLINK-3717,1 52096U 22029J   23351.61412627 -.00000143  00000-0  90968-5 0  9996,2 52096  53.2174 129.1574 0001397  92.5081 267.6072 15.08838408 98035,6917.885,95.438,540.717,538.784,0.0
52096.0,STARLINK-3717,PAYLOAD,2023-12-17 16:19:43,15.08840439,0.0001442,53.2176,128.8591,96.6774,263.4382,2.6329e-05,1.31e-06,0.0,0 STARLINK-3717,1 52096U 22029J   23351.68036420  .00000131  00000-0  26329-4 0  9991,2 52096  53.2176 128.8591 0001442  96.6774 263.4382 15.08840439 98043,6917.879,95.438,540.742,538.746,0.0
52096.0,STARLINK-3717,PAYLOAD,2023-12-18 14:35:07,15.08840945,0.000147,53.2176,124.698,98.9579,261.158,7.4878e-05,9.04e-06,0.0,0 STARLINK-3717,1 52096U 22029J   23352.60772237  .00000904  00000-0  74878-4 0  9997,2 52096  53.2176 124.6980 0001470  98.9579 261.1580 15.08840945 98180,6917.878,95.437,540.759,538.726,0.0
52096.0,STARLINK-3717,PAYLOAD,2023-12-18 16:10:30,15.08841911,0.0001438,53.2175,124.3994,94.3761,265.7395,8.0651e-05,9.96e-06,0.0,0 STARLINK-3717,1 52096U 22029J   23352.67396165  .00000996  00000-0  80651-4 0  9993,2 52096  53.2175 124.3994 0001438  94.3761 265.7395 15.08841911 98197,6917.875,95.437,540.734,538.745,0.0
52096.0,STARLINK-3717,PAYLOAD,2023-12-19 14:25:54,15.08839595,0.0001468,53.2177,120.2361,98.4291,261.6868,1.7636e-05,-7e-08,0.0,0 STARLINK-3717,1 52096U 22029J   23353.60132692 -.00000007  00000-0  17636-4 0  9997,2 52096  53.2177 120.2361 0001468  98.4291 261.6868 15.08839595 98339,6917.882,95.438,540.762,538.731,0.0
52096.0,STARLINK-3717,PAYLOAD,2023-12-19 16:01:17,15.08840894,0.000147,53.218,119.9381,87.5135,272.6025,3.1525e-05,2.14e-06,0.0,0 STARLINK-3717,1 52096U 22029J   23353.66756621  .00000214  00000-0  31525-4 0  9999,2 52096  53.2180 119.9381 0001470  87.5135 272.6025 15.08840894 98341,6917.878,95.437,540.76,538.726,0.0
52096.0,STARLINK-3717,PAYLOAD,2023-12-20 14:16:42,15.08838351,0.000167,53.2178,115.7785,65.0739,295.0427,-5.0104e-05,-1.085e-05,0.0,0 STARLINK-3717,1 52096U 22029J   23354.59493498 -.00001085  00000-0 -50104-4 0  9995,2 52096  53.2178 115.7785 0001670  65.0739 295.0427 15.08838351 98488,6917.885,95.438,540.906,538.595,0.0
52096.0,STARLINK-3717,PAYLOAD,2023-12-20 15:52:05,15.08841127,0.0001546,53.218,115.4809,68.51,291.6057,-2.0614e-05,-6.16e-06,0.0,0 STARLINK-3717,1 52096U 22029J   23354.66117106 -.00000616  00000-0 -20614-4 0  9994,2 52096  53.2180 115.4809 0001546  68.5100 291.6057 15.08841127 98494,6917.877,95.437,540.811,538.672,0.0
52096.0,STARLINK-3717,PAYLOAD,2023-12-21 14:07:29,15.08843592,0.000189,53.218,111.3216,55.1355,304.9814,4.4569e-05,4.21e-06,0.0,0 STARLINK-3717,1 52096U 22029J   23355.58853173  .00000421  00000-0  44569-4 0  9994,2 52096  53.2180 111.3216 0001890  55.1355 304.9814 15.08843592 98630,6917.869,95.437,541.042,538.427,0.0
52096.0,STARLINK-3717,PAYLOAD,2023-12-21 15:42:51,15.08854562,0.0001277,53.2178,111.0194,78.5723,281.5412,0.00016525,2.344e-05,0.0,0 STARLINK-3717,1 52096U 22029J   23355.65475877  .00002344  00000-0  16525-3 0  9999,2 52096  53.2178 111.0194 0001277  78.5723 281.5412 15.08854562 98640,6917.836,95.437,540.584,538.817,0.0
52096.0,STARLINK-3717,PAYLOAD,2023-12-22 12:22:53,15.08839262,0.0001885,53.2186,107.1608,50.7138,309.4021,4.3568e-05,4.05e-06,0.0,0 STARLINK-3717,1 52096U 22029J   23356.51589568  .00000405  00000-0  43568-4 0  9992,2 52096  53.2186 107.1608 0001885  50.7138 309.4021 15.08839262 98772,6917.883,95.438,541.052,538.444,0.0
52096.0,STARLINK-3717,PAYLOAD,2023-12-22 13:58:16,15.08841317,0.0002107,53.2179,106.8628,51.9779,308.1403,5.9985e-05,6.67e-06,0.0,0 STARLINK-3717,1 52096U 22029J   23356.58213461  .00000667  00000-0  59985-4 0  9995,2 52096  53.2179 106.8628 0002107  51.9779 308.1403 15.08841317 98789,6917.876,95.437,541.199,538.284,0.0
52096.0,STARLINK-3717,PAYLOAD,2023-12-23 13:49:03,15.088438,0.0001475,53.2173,102.3976,81.676,278.4399,-3.0986e-05,-7.81e-06,0.0,0 STARLINK-3717,1 52096U 22029J   23357.57573312 -.00000781  00000-0 -30986-4 0  9998,2 52096  53.2173 102.3976 0001475  81.6760 278.4399 15.08843800 98936,6917.869,95.437,540.754,538.713,0.0
52096.0,STARLINK-3717,PAYLOAD,2023-12-24 13:39:49,15.08851243,0.0001346,53.2168,97.9336,84.1551,275.9595,6.8014e-05,7.95e-06,0.0,0 STARLINK-3717,1 52096U 22029J   23358.56932446  .00000795  00000-0  68014-4 0  9991,2 52096  53.2168  97.9336 0001346  84.1551 275.9595 15.08851243 99089,6917.846,95.437,540.642,538.78,0.0
52096.0,STARLINK-3717,PAYLOAD,2023-12-25 11:55:14,15.08842176,0.0001346,53.2166,93.7724,99.7024,260.412,8.8315e-05,1.118e-05,0.0,0 STARLINK-3717,1 52096U 22029J   23359.49669042  .00001118  00000-0  88315-4 0  9999,2 52096  53.2166  93.7724 0001346  99.7024 260.4120 15.08842176 99223,6917.874,95.437,540.67,538.808,0.0
52096.0,STARLINK-3717,PAYLOAD,2023-12-26 11:46:01,15.08836333,0.0001277,53.2165,89.3109,93.0456,267.0682,-4.6329e-05,-1.025e-05,0.0,0 STARLINK-3717,1 52096U 22029J   23360.49030020 -.00001025  00000-0 -46329-4 0  9997,2 52096  53.2165  89.3109 0001277  93.0456 267.0682 15.08836333 99379,6917.892,95.438,540.64,538.873,0.0
52096.0,STARLINK-3717,PAYLOAD,2023-12-27 11:36:48,15.08845059,0.000124,53.2166,84.8502,95.1719,264.9414,6.0287e-05,6.72e-06,0.0,0 STARLINK-3717,1 52096U 22029J   23361.48389396  .00000672  00000-0  60287-4 0  9994,2 52096  53.2166  84.8502 0001240  95.1719 264.9414 15.08845059 99523,6917.865,95.437,540.588,538.872,0.0
52096.0,STARLINK-3717,PAYLOAD,2023-12-27 13:12:12,15.08800747,0.000156,53.2171,84.5539,76.3606,283.7559,0.00076145,0.00011838,0.0,0 STARLINK-3717,1 52096U 22029J   23361.55014484  .00011838  00000-0  76145-3 0  9990,2 52096  53.2171  84.5539 0001560  76.3606 283.7559 15.08800747 99532,6918.0,95.44,540.945,538.786,0.0
52096.0,STARLINK-3717,PAYLOAD,2023-12-27 14:47:34,15.08836996,0.0001334,53.2171,84.2561,77.9181,282.196,0.0003014,4.512e-05,0.0,0 STARLINK-3717,1 52096U 22029J   23361.61637417  .00004512  00000-0  30140-3 0  9990,2 52096  53.2171  84.2561 0001334  77.9181 282.1960 15.08836996 99543,6917.89,95.438,540.677,538.832,0.0
52096.0,STARLINK-3717,PAYLOAD,2023-12-28 11:27:36,15.08835457,0.0001602,53.2177,80.39,62.4853,297.6302,7.5548e-05,9.14e-06,0.0,0 STARLINK-3717,1 52096U 22029J   23362.47750335  .00000914  00000-0  75548-4 0  9994,2 52096  53.2177  80.3900 0001602  62.4853 297.6302 15.08835457 99672,6917.894,95.438,540.868,538.651,0.0
52096.0,STARLINK-3717,PAYLOAD,2023-12-28 13:02:59,15.08839398,0.00016,53.2178,80.0913,70.3121,289.8044,8.871e-05,1.124e-05,0.0,0 STARLINK-3717,1 52096U 22029J   23362.54373952  .00001124  00000-0  88710-4 0  9997,2 52096  53.2178  80.0913 0001600  70.3121 289.8044 15.08839398 99683,6917.882,95.438,540.854,538.64,0.0
52096.0,STARLINK-3717,PAYLOAD,2023-12-29 11:18:23,15.08845403,0.0001501,53.217,75.9314,73.4281,286.6876,-9.7739e-06,-4.44e-06,0.0,0 STARLINK-3717,1 52096U 22029J   23363.47109980 -.00000444  00000-0 -97739-5 0  9996,2 52096  53.2170  75.9314 0001501  73.4281 286.6876 15.08845403 99822,6917.864,95.437,540.767,538.691,0.0
52096.0,STARLINK-3717,PAYLOAD,2023-12-30 11:09:09,15.08845284,0.0001325,53.2169,71.4704,84.0991,276.0152,2.097e-05,4.6e-07,0.0,0 STARLINK-3717,1 52096U 22029J   23364.46469757  .00000046  00000-0  20970-4 0  9995,2 52096  53.2169  71.4704 0001325  84.0991 276.0152 15.08845284 99977,6917.864,95.437,540.646,538.813,0.0
52096.0,STARLINK-3717,PAYLOAD,2023-12-31 10:59:57,15.08833878,0.0001391,53.2169,67.0099,83.5382,276.5769,6.9089e-05,8.12e-06,0.0,0 STARLINK-3717,1 52096U 22029J   23365.45830388  .00000812  00000-0  69089-4 0  9992,2 52096  53.2169  67.0099 0001391  83.5382 276.5769 15.08833878100121,6917.899,95.438,540.726,538.802,0.0
52096.0,STARLINK-3717,PAYLOAD,2024-01-01 10:50:44,15.08841711,0.0001314,53.217,62.5484,87.2402,272.8741,2.1649e-05,5.7e-07,0.0,0 STARLINK-3717,1 52096U 22029J   24001.45190095  .00000057  00000-0  21649-4 0  9995,2 52096  53.2170  62.5484 0001314  87.2402 272.8741 15.08841711100270,6917.875,95.437,540.649,538.831,0.0
52096.0,STARLINK-3717,PAYLOAD,2024-01-02 10:41:31,15.08837214,0.000141,53.2175,58.0891,96.518,263.5973,2.006e-05,3.1e-07,0.0,0 STARLINK-3717,1 52096U 22029J   24002.44550517  .00000031  00000-0  20060-4 0  9992,2 52096  53.2175  58.0891 0001410  96.5180 263.5973 15.08837214100424,6917.889,95.438,540.729,538.778,0.0
52096.0,STARLINK-3717,PAYLOAD,2024-01-03 02:35:27,15.08778036,0.0001308,53.2175,55.1176,43.8993,316.2103,-0.00043122,-7.132e-05,0.0,0 STARLINK-3717,1 52096U 22029J   24003.10796176 -.00007132  00000-0 -43122-3 0  9993,2 52096  53.2175  55.1176 0001308  43.8993 316.2103 15.08778036100529,6918.07,95.441,540.84,539.03,0.0
52096.0,STARLINK-3717,PAYLOAD,2024-01-03 08:56:57,15.08831018,0.0001461,53.2169,53.9258,95.6931,264.4228,3.2006e-05,2.21e-06,0.0,0 STARLINK-3717,1 52096U 22029J   24003.37288330  .00000221  00000-0  32006-4 0  9990,2 52096  53.2169  53.9258 0001461  95.6931 264.4228 15.08831018100562,6917.908,95.438,540.784,538.762,0.0
